[
    {
        "Altitude(m)": 605459.00821356,
        "Argument of Periapsis(deg)": 0.0,
        "Eccentricity": 0.0,
        "Inclination(deg)": 60.0,
        "Latitude(deg)": 27.98814716593122,
        "Longitude(deg)": -47.201450651662796,
        "Mean Anomaly(deg)": 32.7273,
        "RAAN(deg)": 35.0,
        "Satellite Name": "Test1 156",
        "Satellite Number": 156,
        "Semi-Major Axis(m)": 6980739.136638005,
        "Time(s)": 0
    },
    {
        "Altitude(m)": 605535.7991177079,
        "Argument of Periapsis(deg)": 0.00010418945913296404,
        "Eccentricity": 0.0,
        "Inclination(deg)": 60.0,
        "Latitude(deg)": 28.501277101630677,
        "Longitude(deg)": -46.844506566671605,
        "Mean Anomaly(deg)": 33.347406145461825,
        "RAAN(deg)": 34.99957995086025,
        "Satellite Name": "Test1 156",
        "Satellite Number": 156,
        "Semi-Major Axis(m)": 6980739.136638005,
        "Time(s)": 10
    }
]